STARLINK-32140          
1 61511U 24183C   26010.81681031 -.00002065  00000+0 -57663-4 0  9994
2 61511  53.1607  51.1413 0001103  90.0047 270.1080 15.30173569 70799
STARLINK-32201          
1 61512U 24183D   26009.38565392 -.00003265  00000+0 -98206-4 0  9997
2 61512  53.1609  45.0609 0001393  87.3008 272.8152 15.30179654 70754
STARLINK-32030          
1 61513U 24183E   26010.84001072  .00000581  00000+0  31760-4 0  9999
2 61513  53.1605  51.2875 0001225  77.1655 282.9483 15.30191145 70796
STARLINK-31837          
1 61514U 24183F   26010.82734634 -.00001369  00000+0 -34109-4 0  9992
2 61514  53.1616  51.1944 0001266  90.8066 269.3080 15.30191301 70794
STARLINK-32136          
1 61515U 24183G   26010.32698848 -.00004606  00000+0 -14351-3 0  9997
2 61515  53.1607  53.7712 0001336  43.6395 316.4711 15.30194647 70718
STARLINK-32047          
1 61516U 24183H   26010.82417599  .00000926  00000+0  43410-4 0  9993
2 61516  53.1615  51.1746 0001580  80.8279 279.2900 15.30196737 70798
STARLINK-31756          
1 61517U 24183J   26010.80001359  .00000433  00000+0  26740-4 0  9995
2 61517  53.1614  51.6888 0001182  88.8950 271.2186 15.30194955 70789
STARLINK-32172          
1 61518U 24183K   26010.36381006  .00000487  00000+0  28576-4 0  9995
2 61518  53.1612  53.2764 0000995 109.9223 250.1885 15.30191068 70726
STARLINK-32338          
1 61519U 24183L   26010.81362959  .00000488  00000+0  28640-4 0  9995
2 61519  53.1601  51.1067 0002330  47.9801 312.1398 15.30197032 70798
STARLINK-32306          
1 61520U 24183M   26010.81045392 -.00006036  00000+0 -19184-3 0  9995
2 61520  53.1616  51.0868 0001253  82.9177 277.1966 15.30197648 70796
STARLINK-32297          
1 61521U 24183N   26010.80728805  .00002121  00000+0  83694-4 0  9999
2 61521  53.1599  51.0655 0001402  78.6226 281.4933 15.30206423 70798
STARLINK-32260          
1 61522U 24183P   26010.80413529 -.00000564  00000+0 -69104-5 0  9996
2 61522  53.1627  51.0444 0001704  54.9119 305.2042 15.30190183 70791
STARLINK-32305          
1 61523U 24183Q   26010.83683962  .00000307  00000+0  22496-4 0  9995
2 61523  53.1604  51.2532 0001421  87.6369 272.4794 15.30193000 70793
STARLINK-32296          
1 61524U 24183R   26010.80096201  .00000164  00000+0  17666-4 0  9991
2 61524  53.1622  51.0247 0001251  78.6695 281.4447 15.30196634 70799
STARLINK-32298          
1 61525U 24183S   26010.79776545  .00003971  00000+0  14601-3 0  9990
2 61525  53.1609  51.0050 0001170  94.9711 265.1424 15.30227972 70791
STARLINK-32293          
1 61526U 24183T   26010.33753607 -.00000976  00000+0 -20830-4 0  9991
2 61526  53.1609  53.8216 0001259  99.5848 260.5295 15.30200733 70719
STARLINK-32313          
1 61527U 24183U   26010.33121019  .00000513  00000+0  29451-4 0  9991
2 61527  53.1608  53.7782 0000933  80.4897 279.6209 15.30190711 70717
STARLINK-32319          
1 61528U 24183V   26010.33647853 -.00004221  00000+0 -13041-3 0  9990
2 61528  53.1602  53.8125 0001112  83.0213 277.0915 15.30213878 70711
STARLINK-32351          
1 61529U 24183W   26010.82354247  .00003564  00000+0  13240-3 0  9995
2 61529  53.1607  48.3490 0001431  74.2403 285.8756 15.30200403 70831
STARLINK-32261          
1 61530U 24183X   26010.32065921  .00005787  00000+0  20742-3 0  9994
2 61530  53.1583  53.7255 0001014  66.9957 293.1151 15.30191584 70711
STARLINK-32358          
1 61531U 24183Y   26010.82628994 -.00000497  00000+0 -46515-5 0  9998
2 61531  53.1615  51.1964 0001134  97.0481 263.0649 15.30190933 70790
STARLINK-11354 [DTC]    
1 61532U 24184A   26010.60729843 -.00001332  00000+0 -61351-5 0  9995
2 61532  53.1597 162.6817 0001070  86.3090 273.8051 15.69708445 71298
STARLINK-11323 [DTC]    
1 61533U 24184B   26010.78849482 -.00000856  00000+0 -21953-5 0  9991
2 61533  53.1589 161.6733 0001692  75.9191 284.2015 15.69714117 71325
STARLINK-11338 [DTC]    
1 61534U 24184C   26010.79339980 -.00001728  00000+0 -94064-5 0  9992
2 61534  53.1599 161.7048 0001131  85.5671 274.5477 15.69711273 71329
STARLINK-11362 [DTC]    
1 61535U 24184D   26010.71501098 -.00004719  00000+0 -34097-4 0  9998
2 61535  53.1592 161.9190 0001051  78.8091 281.3045 15.69724175 71316
STARLINK-11295 [DTC]    
1 61536U 24184E   26010.65624987  .00001978  00000+0  21186-4 0  9992
2 61536  53.1594 162.2702 0001264  40.5638 319.5474 15.69706747 71305
STARLINK-11331 [DTC]    
1 61537U 24184F   26009.69140138 -.00001810  00000+0 -10079-4 0  9992
2 61537  53.1606 166.9096 0001544  63.5494 296.5682 15.69709052 71153
STARLINK-11325 [DTC]    
1 61538U 24184G   26010.70519797 -.00002542  00000+0 -16116-4 0  9999
2 61538  53.1603 161.8565 0001348  74.9594 285.1573 15.69722023 71319
STARLINK-11332 [DTC]    
1 61539U 24184H   26010.70029048 -.00000221  00000+0  30319-5 0  9998
2 61539  53.1592 161.8422 0001243  88.4391 271.6769 15.69726628 71310
STARLINK-11350 [DTC]    
1 61540U 24184J   26010.82272476 -.00001740  00000+0 -95014-5 0  9999
2 61540  53.1603 161.1612 0001181  83.0976 277.0176 15.69721007 71330
STARLINK-11357 [DTC]    
1 61541U 24184K   26010.69058449  .00000138  00000+0  60024-5 0  9998
2 61541  53.1594 162.4933 0001392  84.0855 276.0322 15.69714184 71308
STARLINK-11322 [DTC]    
1 61542U 24184L   26010.68568372 -.00002052  00000+0 -12090-4 0  9997
2 61542  53.1590 162.4606 0000772  87.9930 272.1176 15.69709466 72367
STARLINK-11364 [DTC]    
1 61543U 24184M   26010.80810931 -.00002413  00000+0 -15061-4 0  9995
2 61543  53.1583 161.7971 0000834  77.0781 283.0330 15.69721466 71322
STARLINK-11349 [DTC]    
1 61544U 24184N   26010.61219970 -.00000243  00000+0  28512-5 0  9995
2 61544  53.1580 162.7074 0001126  74.0771 286.0371 15.69708809 71296
STARLINK-32406          
1 61545U 24184P   26011.00291968  .00005412  00000+0  19492-3 0  9994
2 61545  53.1616 281.9766 0001365  97.7554 262.3602 15.30166785 69677
STARLINK-32445          
1 61546U 24184Q   26010.95027087  .00003499  00000+0  13026-3 0  9997
2 61546  53.1605 282.3670 0001225  70.1202 289.9931 15.30188628 69664
STARLINK-32411          
1 61547U 24184R   26010.93446167 -.00000510  00000+0 -50808-5 0  9994
2 61547  53.1627 282.2639 0001610  90.2635 269.8550 15.30175177 69663
STARLINK-32424          
1 61548U 24184S   26010.94709889  .00003343  00000+0  12497-3 0  9994
2 61548  53.1607 282.3446 0001373  66.3133 293.8012 15.30196367 69666
STARLINK-32389          
1 61549U 24184T   26010.93127917  .00000567  00000+0  31267-4 0  9992
2 61549  53.1622 282.2491 0001114  86.6850 273.4278 15.30190814 69666
STARLINK-32476          
1 61550U 24184U   26010.94394295  .00003346  00000+0  12511-3 0  9998
2 61550  53.1607 282.3246 0001230  57.4621 302.6498 15.30182788 69661
STARLINK-32366          
1 61551U 24184V   26010.95344148 -.00001210  00000+0 -28735-4 0  9998
2 61551  53.1617 282.3874 0000999 101.7856 258.3257 15.30199655 69665
QIANFAN-19              
1 61552U 24185A   26010.94625075  .00000466  00000+0  23639-3 0  9997
2 61552  88.9797  74.5980 0006421 192.2079 167.8954 14.14329961 73791
QIANFAN-20              
1 61553U 24185B   26010.94967645  .00000439  00000+0  24602-3 0  9991
2 61553  88.9797  74.9510 0004267 239.0748 121.0016 14.08877917 73607
QIANFAN-21              
1 61554U 24185C   26010.94048005  .00000603  00000+0  26316-3 0  9999
2 61554  88.9712  73.5624 0008396 265.5896  94.4336 14.22653113 74123
QIANFAN-22              
1 61555U 24185D   26010.94982364  .00000128  00000+0  99553-4 0  9991
2 61555  88.9781  76.0495 0004413 261.3001  98.7670 13.86315335 72982
QIANFAN-23              
1 61556U 24185E   26010.95117273  .00000418  00000+0  20349-3 0  9990
2 61556  88.9789  74.3933 0006663 206.1860 153.8992 14.16324750 73883
QIANFAN-24              
1 61557U 24185F   26010.91855882  .00000697  00000+0  29839-3 0  9994
2 61557  88.9770  73.7541 0009130 188.9474 171.1557 14.23854929 74179
QIANFAN-25              
1 61558U 24185G   26010.90341037  .00000361  00000+0  21199-3 0  9995
2 61558  88.9778  74.8920 0009100 209.3562 150.7110 14.05936057 73602
QIANFAN-26              
1 61559U 24185H   26010.79763905  .00000260  00000+0  24730-3 0  9997
2 61559  88.9790  76.6185 0003658 284.3696  75.7065 13.77830668 72673
QIANFAN-27              
1 61560U 24185J   26010.91204958  .00000402  00000+0  15820-3 0  9999
2 61560  88.9781  73.5265 0007879 176.5244 183.6007 14.27374605 74329
QIANFAN-28              
1 61561U 24185K   26010.94971486  .00000794  00000+0  31391-3 0  9995
2 61561  88.9800  73.5274 0007386 175.2276 184.8991 14.28102644 74346
QIANFAN-29              
1 61562U 24185L   26010.99363369  .00000125  00000+0  17462-3 0  9997
2 61562  88.9767  78.2917 0008660 335.4638  24.6100 13.51022970 71745
QIANFAN-30              
1 61563U 24185M   26010.91653840  .00000173  00000+0  25265-3 0  9999
2 61563  88.9788  77.8364 0005984 321.2187  38.8534 13.50000009 72004
QIANFAN-31              
1 61564U 24185N   26010.93470126  .00000110  00000+0  13591-3 0  9996
2 61564  88.9771  77.5900 0005208 313.4830  46.5892 13.57979927 72124
QIANFAN-32              
1 61565U 24185P   26010.94293304  .00000168  00000+0  24300-3 0  9992
2 61565  88.9830  77.9765 0008567 350.6451   9.4539 13.50747666 71982
QIANFAN-33              
1 61566U 24185Q   26010.92212976  .00000302  00000+0  20889-3 0  9995
2 61566  88.9778  75.5585 0005765 219.6052 140.4704 13.96580024 73239
QIANFAN-34              
1 61567U 24185R   26010.91057184  .00000296  00000+0  18383-3 0  9991
2 61567  88.9755  75.0849 0004513 223.9356 136.1466 14.02335802 73448
QIANFAN-35              
1 61568U 24185S   26010.91790784  .00000729  00000+0  28798-3 0  9994
2 61568  88.9780  73.4582 0006856 170.7622 189.3700 14.28025370 74345
QIANFAN-36              
1 61569U 24185T   26010.89757034  .00000157  00000+0  20834-3 0  9991
2 61569  88.9765  78.0116 0004585 333.0514  27.0401 13.55599167 71874
